{
  "norad_id": 67360,
  "name": "STARLINK-36469",
  "history": [
    {
      "epoch": "2026-03-28T19:24:39.520800Z",
      "apogee_km": 484.5749379963372,
      "perigee_km": 481.29068109990203,
      "latitude_deg": -3.0326415905044813e-05,
      "longitude_deg": 2.0725812348489776,
      "height_km": 482.70805682034506,
      "semi_major_axis_km": 6861.069809548119,
      "eccentricity": 0.00023934,
      "inclination_deg": 43.006,
      "raan_deg": 119.4612,
      "arg_perigee_deg": 270.1004,
      "mean_anomaly_deg": 89.9573,
      "mean_motion_rev_day": 15.27618836
    },
    {
      "epoch": "2026-03-29T01:41:16.797984Z",
      "apogee_km": 483.65377116404125,
      "perigee_km": 482.1388550085112,
      "latitude_deg": 1.7283520980589483e-05,
      "longitude_deg": -93.81787774922279,
      "height_km": 482.5978438596689,
      "semi_major_axis_km": 6861.0333130862755,
      "eccentricity": 0.0001104,
      "inclination_deg": 43.0021,
      "raan_deg": 117.9838,
      "arg_perigee_deg": 275.6941,
      "mean_anomaly_deg": 84.3785,
      "mean_motion_rev_day": 15.27631025
    },
    {
      "epoch": "2026-03-30T00:00:01.999296Z",
      "apogee_km": 484.17465553148304,
      "perigee_km": 482.12587515405176,
      "latitude_deg": 42.11611833740411,
      "longitude_deg": -0.09242349030330009,
      "height_km": 487.0926342395756,
      "semi_major_axis_km": 6861.287265342768,
      "eccentricity": 0.0001493,
      "inclination_deg": 43.0043,
      "raan_deg": 112.7328,
      "arg_perigee_deg": 264.3973,
      "mean_anomaly_deg": 174.2098,
      "mean_motion_rev_day": 15.27546214
    },
    {
      "epoch": "2026-03-30T00:00:02.000160Z",
      "apogee_km": 484.17465553148304,
      "perigee_km": 482.12587515405176,
      "latitude_deg": 42.116118337404025,
      "longitude_deg": -0.09242710015828591,
      "height_km": 487.0926342395756,
      "semi_major_axis_km": 6861.287265342768,
      "eccentricity": 0.0001493,
      "inclination_deg": 43.0043,
      "raan_deg": 112.7328,
      "arg_perigee_deg": 264.3973,
      "mean_anomaly_deg": 174.2098,
      "mean_motion_rev_day": 15.27546214
    },
    {
      "epoch": "2026-03-30T18:29:22.407072Z",
      "apogee_km": 484.1029663222016,
      "perigee_km": 481.92852979328745,
      "latitude_deg": 3.894429103334049e-05,
      "longitude_deg": 2.8823150664927706,
      "height_km": 482.86478046753217,
      "semi_major_axis_km": 6861.152748057744,
      "eccentricity": 0.00015846,
      "inclination_deg": 43.0,
      "raan_deg": 108.383,
      "arg_perigee_deg": 266.1924,
      "mean_anomaly_deg": 93.8747,
      "mean_motion_rev_day": 15.27591137
    },
    {
      "epoch": "2026-03-31T18:01:43.859712Z",
      "apogee_km": 483.6870308783173,
      "perigee_km": 482.38615236534497,
      "latitude_deg": 4.22907949300326e-05,
      "longitude_deg": 3.2865095706399425,
      "height_km": 482.5415029099979,
      "semi_major_axis_km": 6861.17359162183,
      "eccentricity": 9.48e-05,
      "inclination_deg": 42.998,
      "raan_deg": 102.8433,
      "arg_perigee_deg": 65.5347,
      "mean_anomaly_deg": 294.5604,
      "mean_motion_rev_day": 15.27584176
    },
    {
      "epoch": "2026-04-01T17:34:03.998208Z",
      "apogee_km": 484.4910076963597,
      "perigee_km": 481.5050417336033,
      "latitude_deg": 3.89461634255349e-05,
      "longitude_deg": 3.695587449352536,
      "height_km": 482.96778147246647,
      "semi_major_axis_km": 6861.135024714981,
      "eccentricity": 0.0002176,
      "inclination_deg": 43.0048,
      "raan_deg": 97.303,
      "arg_perigee_deg": 262.6126,
      "mean_anomaly_deg": 97.4479,
      "mean_motion_rev_day": 15.27597056
    },
    {
      "epoch": "2026-04-02T17:06:23.095584Z",
      "apogee_km": 484.02081373878264,
      "perigee_km": 481.6263384977183,
      "latitude_deg": 5.234012195423533e-05,
      "longitude_deg": 4.1087326435263085,
      "height_km": 482.4096763630404,
      "semi_major_axis_km": 6860.96057611825,
      "eccentricity": 0.0001745,
      "inclination_deg": 43.0029,
      "raan_deg": 91.7624,
      "arg_perigee_deg": 279.1895,
      "mean_anomaly_deg": 80.876,
      "mean_motion_rev_day": 15.27655318
    },
    {
      "epoch": "2026-04-02T23:23:01.036320Z",
      "apogee_km": 483.38480045218876,
      "perigee_km": 482.58067721879615,
      "latitude_deg": -1.2699966022830956e-05,
      "longitude_deg": -91.78241861062583,
      "height_km": 482.62899970302965,
      "semi_major_axis_km": 6861.119738835492,
      "eccentricity": 5.86e-05,
      "inclination_deg": 42.9985,
      "raan_deg": 90.2872,
      "arg_perigee_deg": 71.3746,
      "mean_anomaly_deg": 288.7169,
      "mean_motion_rev_day": 15.27602161
    },
    {
      "epoch": "2026-04-03T16:38:44.538720Z",
      "apogee_km": 484.2262362708352,
      "perigee_km": 481.80013356544805,
      "latitude_deg": -4.560000904140716e-05,
      "longitude_deg": 4.5148576793475685,
      "height_km": 482.9406214645591,
      "semi_major_axis_km": 6861.150184918141,
      "eccentricity": 0.0001768,
      "inclination_deg": 43.0051,
      "raan_deg": 86.2247,
      "arg_perigee_deg": 262.9017,
      "mean_anomaly_deg": 97.1633,
      "mean_motion_rev_day": 15.27591993
    },
    {
      "epoch": "2026-04-04T00:29:30.986592Z",
      "apogee_km": 484.04807615635127,
      "perigee_km": 481.826597507571,
      "latitude_deg": 1.9551339456427902e-05,
      "longitude_deg": -115.3465391381872,
      "height_km": 482.7978346975575,
      "semi_major_axis_km": 6861.074336831961,
      "eccentricity": 0.00016189,
      "inclination_deg": 43.0052,
      "raan_deg": 84.379,
      "arg_perigee_deg": 265.7115,
      "mean_anomaly_deg": 94.3552,
      "mean_motion_rev_day": 15.27617324
    },
    {
      "epoch": "2026-04-05T00:01:53.467392Z",
      "apogee_km": 483.4223452599672,
      "perigee_km": 482.6589706337436,
      "latitude_deg": 1.5144668497709995e-05,
      "longitude_deg": -114.94615088431976,
      "height_km": 482.7018853808477,
      "semi_major_axis_km": 6861.177657946855,
      "eccentricity": 5.563e-05,
      "inclination_deg": 43.0003,
      "raan_deg": 78.8398,
      "arg_perigee_deg": 287.496,
      "mean_anomaly_deg": 72.5831,
      "mean_motion_rev_day": 15.27582818
    },
    {
      "epoch": "2026-04-05T15:43:27.412032Z",
      "apogee_km": 484.6847877980572,
      "perigee_km": 481.3969113725352,
      "latitude_deg": 1.1876678216188211e-05,
      "longitude_deg": 5.325629606617265,
      "height_km": 483.0010922075673,
      "semi_major_axis_km": 6861.177849585296,
      "eccentricity": 0.0002396,
      "inclination_deg": 43.004,
      "raan_deg": 75.1475,
      "arg_perigee_deg": 263.6306,
      "mean_anomaly_deg": 96.4273,
      "mean_motion_rev_day": 15.27582754
    },
    {
      "epoch": "2026-04-05T23:34:14.791296Z",
      "apogee_km": 483.6982146330947,
      "perigee_km": 482.3439592498953,
      "latitude_deg": -6.850751799895838e-07,
      "longitude_deg": -114.5402420414841,
      "height_km": 482.9371240752145,
      "semi_major_axis_km": 6861.158086941495,
      "eccentricity": 9.869e-05,
      "inclination_deg": 43.0033,
      "raan_deg": 73.3013,
      "arg_perigee_deg": 258.123,
      "mean_anomaly_deg": 101.9511,
      "mean_motion_rev_day": 15.27589354
    },
    {
      "epoch": "2026-04-06T23:06:35.303904Z",
      "apogee_km": 483.6138049256224,
      "perigee_km": 482.3444984375601,
      "latitude_deg": -5.7804107719527685e-05,
      "longitude_deg": -114.13638824152414,
      "height_km": 483.388805770769,
      "semi_major_axis_km": 6861.116151681591,
      "eccentricity": 9.25e-05,
      "inclination_deg": 42.9998,
      "raan_deg": 67.7574,
      "arg_perigee_deg": 178.3203,
      "mean_anomaly_deg": 181.7651,
      "mean_motion_rev_day": 15.27603359
    },
    {
      "epoch": "2026-04-08T06:29:42.989280Z",
      "apogee_km": 484.0925921403323,
      "perigee_km": 481.87521508670216,
      "latitude_deg": 5.533510863927534e-06,
      "longitude_deg": 126.41299766756549,
      "height_km": 483.0702518720204,
      "semi_major_axis_km": 6861.120903613517,
      "eccentricity": 0.00016159,
      "inclination_deg": 43.0057,
      "raan_deg": 60.3777,
      "arg_perigee_deg": 253.8205,
      "mean_anomaly_deg": 106.2469,
      "mean_motion_rev_day": 15.27601772
    },
    {
      "epoch": "2026-04-09T06:02:03.851808Z",
      "apogee_km": 484.17821534599807,
      "perigee_km": 481.831979194415,
      "latitude_deg": -3.060718131132969e-05,
      "longitude_deg": 126.82161129437324,
      "height_km": 482.9745657693057,
      "semi_major_axis_km": 6861.142097270206,
      "eccentricity": 0.00017098,
      "inclination_deg": 43.0062,
      "raan_deg": 54.84,
      "arg_perigee_deg": 260.5867,
      "mean_anomaly_deg": 99.4791,
      "mean_motion_rev_day": 15.27594694
    },
    {
      "epoch": "2026-04-10T05:34:24.664224Z",
      "apogee_km": 483.8139194306741,
      "perigee_km": 482.20292248583337,
      "latitude_deg": -7.014345608351044e-06,
      "longitude_deg": 127.22889823216775,
      "height_km": 483.1761916582958,
      "semi_major_axis_km": 6861.145420958253,
      "eccentricity": 0.0001174,
      "inclination_deg": 43.0001,
      "raan_deg": 49.3007,
      "arg_perigee_deg": 240.9252,
      "mean_anomaly_deg": 119.1482,
      "mean_motion_rev_day": 15.27593584
    },
    {
      "epoch": "2026-04-11T20:48:19.612224Z",
      "apogee_km": 483.41213551734654,
      "perigee_km": 482.63545211548626,
      "latitude_deg": 5.0605484715009694e-05,
      "longitude_deg": -112.09309161852198,
      "height_km": 482.9250951927538,
      "semi_major_axis_km": 6861.160793816416,
      "eccentricity": 5.66e-05,
      "inclination_deg": 43.0024,
      "raan_deg": 40.0688,
      "arg_perigee_deg": 251.204,
      "mean_anomaly_deg": 108.8751,
      "mean_motion_rev_day": 15.2758845
    }
  ]
}